{
  "type": "FeatureCollection",
  "features": [
    {
      "type": "Feature",
      "properties": {
        "id": "zone-nw",
        "name": "Service zone NW"
      },
      "geometry": {
        "type": "Polygon",
        "coordinates": [
          [
            [
              -115.38,
              36.20666666666667
            ],
            [
              -115.24666666666667,
              36.20666666666667
            ],
            [
              -115.24666666666667,
              36.34
            ],
            [
              -115.38,
              36.34
            ],
            [
              -115.38,
              36.20666666666667
            ]
          ]
        ]
      }
    },
    {
      "type": "Feature",
      "properties": {
        "id": "zone-n",
        "name": "Service zone N"
      },
      "geometry": {
        "type": "Polygon",
        "coordinates": [
          [
            [
              -115.24666666666667,
              36.20666666666667
            ],
            [
              -115.11333333333334,
              36.20666666666667
            ],
            [
              -115.11333333333334,
              36.34
            ],
            [
              -115.24666666666667,
              36.34
            ],
            [
              -115.24666666666667,
              36.20666666666667
            ]
          ]
        ]
      }
    },
    {
      "type": "Feature",
      "properties": {
        "id": "zone-ne",
        "name": "Service zone NE"
      },
      "geometry": {
        "type": "Polygon",
        "coordinates": [
          [
            [
              -115.11333333333333,
              36.20666666666667
            ],
            [
              -114.98,
              36.20666666666667
            ],
            [
              -114.98,
              36.34
            ],
            [
              -115.11333333333333,
              36.34
            ],
            [
              -115.11333333333333,
              36.20666666666667
            ]
          ]
        ]
      }
    },
    {
      "type": "Feature",
      "properties": {
        "id": "zone-w",
        "name": "Service zone W"
      },
      "geometry": {
        "type": "Polygon",
        "coordinates": [
          [
            [
              -115.38,
              36.07333333333334
            ],
            [
              -115.24666666666667,
              36.07333333333334
            ],
            [
              -115.24666666666667,
              36.20666666666667
            ],
            [
              -115.38,
              36.20666666666667
            ],
            [
              -115.38,
              36.07333333333334
            ]
          ]
        ]
      }
    },
    {
      "type": "Feature",
      "properties": {
        "id": "zone-c",
        "name": "Service zone C"
      },
      "geometry": {
        "type": "Polygon",
        "coordinates": [
          [
            [
              -115.24666666666667,
              36.07333333333334
            ],
            [
              -115.11333333333334,
              36.07333333333334
            ],
            [
              -115.11333333333334,
              36.20666666666667
            ],
            [
              -115.24666666666667,
              36.20666666666667
            ],
            [
              -115.24666666666667,
              36.07333333333334
            ]
          ]
        ]
      }
    },
    {
      "type": "Feature",
      "properties": {
        "id": "zone-e",
        "name": "Service zone E"
      },
      "geometry": {
        "type": "Polygon",
        "coordinates": [
          [
            [
              -115.11333333333333,
              36.07333333333334
            ],
            [
              -114.98,
              36.07333333333334
            ],
            [
              -114.98,
              36.20666666666667
            ],
            [
              -115.11333333333333,
              36.20666666666667
            ],
            [
              -115.11333333333333,
              36.07333333333334
            ]
          ]
        ]
      }
    },
    {
      "type": "Feature",
      "properties": {
        "id": "zone-sw",
        "name": "Service zone SW"
      },
      "geometry": {
        "type": "Polygon",
        "coordinates": [
          [
            [
              -115.38,
              35.94
            ],
            [
              -115.24666666666667,
              35.94
            ],
            [
              -115.24666666666667,
              36.07333333333333
            ],
            [
              -115.38,
              36.07333333333333
            ],
            [
              -115.38,
              35.94
            ]
          ]
        ]
      }
    },
    {
      "type": "Feature",
      "properties": {
        "id": "zone-s",
        "name": "Service zone S"
      },
      "geometry": {
        "type": "Polygon",
        "coordinates": [
          [
            [
              -115.24666666666667,
              35.94
            ],
            [
              -115.11333333333334,
              35.94
            ],
            [
              -115.11333333333334,
              36.07333333333333
            ],
            [
              -115.24666666666667,
              36.07333333333333
            ],
            [
              -115.24666666666667,
              35.94
            ]
          ]
        ]
      }
    },
    {
      "type": "Feature",
      "properties": {
        "id": "zone-se",
        "name": "Service zone SE"
      },
      "geometry": {
        "type": "Polygon",
        "coordinates": [
          [
            [
              -115.11333333333333,
              35.94
            ],
            [
              -114.98,
              35.94
            ],
            [
              -114.98,
              36.07333333333333
            ],
            [
              -115.11333333333333,
              36.07333333333333
            ],
            [
              -115.11333333333333,
              35.94
            ]
          ]
        ]
      }
    }
  ]
}
